ONEWEB-0415             
1 51624U 22012C   25343.49038026  .00000380  00000+0  10521-2 0  9995
2 51624  87.8804  74.0848 0001443  96.0430 264.0862 13.10368844184447
ONEWEB-0416             
1 51625U 22012D   25343.50197382 -.00000395  00000+0 -11676-2 0  9999
2 51625  87.8804  74.1036 0001339 103.7608 256.3669 13.10371734184480
ONEWEB-0422             
1 51626U 22012E   25343.46291938  .00000517  00000+0  12985-2 0  9995
2 51626  87.9132  43.5724 0002295  90.8939 269.2455 13.17652404188826
ONEWEB-0423             
1 51627U 22012F   25343.45616502  .00000074  00000+0  15678-3 0  9994
2 51627  87.9120  43.5835 0001853 101.5658 258.5682 13.17650437188719
ONEWEB-0425             
1 51628U 22012G   25343.28286270 -.00000506  00000+0 -14867-2 0  9991
2 51628  87.8815  74.1187 0001687 117.4469 242.6830 13.10371989184452
ONEWEB-0428             
1 51629U 22012H   25343.49202876  .00000339  00000+0  93394-3 0  9990
2 51629  87.8805  74.0950 0001697 103.4762 256.6554 13.10369609184444
ONEWEB-0431             
1 51630U 22012J   25343.53836584  .00000165  00000+0  43594-3 0  9990
2 51630  87.8819  74.0654 0001505  79.7354 280.3943 13.10376359184505
ONEWEB-0434             
1 51631U 22012K   25343.51536444 -.00000532  00000+0 -15618-2 0  9996
2 51631  87.8811  74.1071 0001724 129.4607 230.6674 13.10334097184488
